58P/Jackson-Neujmin,e,13.0826,159.0230,200.5747,4.092211,0.1190603,0.66130652,256.2699,04/17.0/2026,2000,g 15.5,6.0
# From MPC191598
59P/Kearns-Kwee,e,9.3577,312.7262,127.7087,4.477627,0.1040237,0.47698262,287.3210,04/17.0/2026,2000,g  7.0,6.0
# From MPC191598
60P/Tsuchinshan,e,3.5798,267.3957,216.9218,3.529521,0.1486382,0.53368368,40.1897,04/17.0/2026,2000,g 11.5,6.0
# From MPC191598
61P/Shajn-Schaldach,e,5.9953,162.9526,221.7182,3.691563,0.1389596,0.42266418,176.7799,04/17.0/2026,2000,g  6.0,10.0
# From MPC191598
62P/Tsuchinshan,e,4.7357,68.6581,47.3579,3.371715,0.1591944,0.62472691,134.3054,04/17.0/2026,2000,g  8.0,10.0
# From MPEC 2026-G41
63P/Wild,e,19.6185,357.7404,168.7371,5.656507,0.0732625,0.65085496,354.1289,04/17.0/2026,2000,g 10.5,6.0
# From MPC191598
64P/Swift-Gehrels,e,8.9550,299.7605,97.3391,4.452405,0.1049088,0.68815653,285.0595,04/17.0/2026,2000,g  9.5,12.0
# From MPC191598
65P/Gunn,e,9.1749,61.9674,213.6278,3.891220,0.1284031,0.24806472,39.1331,04/17.0/2026,2000,g  5.0,6.0
# From MPC191598
66P/duToit,e,18.6471,21.8666,257.3231,6.070591,0.0658958,0.78493212,191.0354,04/17.0/2026,2000,g 12.0,3.6
# From MPC191598
67P/Churyumov-Gerasimenko,e,3.8666,36.2955,22.2351,3.458820,0.1532188,0.64961225,249.1540,04/17.0/2026,2000,g 11.0,4.0
# From MPC191598
68P/Klemola,e,11.0965,175.0979,153.1802,4.964551,0.0891013,0.63560213,209.9076,04/17.0/2026,2000,g 10.0,4.0
# From MPC191599
69P/Taylor,e,22.0612,104.8060,343.5504,3.878766,0.1290220,0.41465077,332.9738,04/17.0/2026,2000,g  9.5,12.0
# From MPEC 2026-FR0
70P/Kojima,e,6.6037,119.2363,1.8216,3.674704,0.1399170,0.45497073,227.2238,04/17.0/2026,2000,g 11.0,6.0
# From MPC191599
71P/Clark,e,9.1743,58.8015,210.9025,3.188029,0.1731493,0.48107157,205.5416,04/17.0/2026,2000,g  9.8,6.0
# From MPC191599
73P/Schwassmann-Wachmann,e,6.2590,52.8521,214.1613,3.057334,0.1843698,0.70282679,246.7909,04/17.0/2026,2000,g 11.5,6.0
# From MPC106348
73P-BT/Schwassmann-Wachmann,e,6.2204,52.9118,214.0373,3.058728,0.1842437,0.70301152,246.5129,04/17.0/2026,2000,g 11.5,6.0
# From MPEC 2026-E44
74P/Smirnova-Chernykh,e,5.8577,49.5315,57.6474,5.181196,0.0835717,0.06641932,4.6776,04/17.0/2026,2000,g  5.0,6.0
# From MPEC 2026-FR0
76P/West-Kohoutek-Ikemura,e,30.4978,84.1091,0.0235,3.467545,0.1526409,0.53950432,0.5126,04/17.0/2026,2000,g  8.0,12.0
# From MPC191599
77P/Longmore,e,24.3334,14.7478,196.5837,3.619123,0.1431525,0.35217247,158.8904,04/17.0/2026,2000,g  7.0,8.0
# From MPEC 2026-E43
78P/Gehrels,e,6.2575,210.4944,192.7939,3.732000,0.1367073,0.46288936,350.5540,04/17.0/2026,2000,g  5.5,8.0
# From MPC191599
79P/duToit-Hartley,e,3.1490,280.4770,281.7710,2.941842,0.1953327,0.61966629,181.5609,04/17.0/2026,2000,g 16.0,4.0
# From MPC191600
81P/Wild,e,3.2389,136.1080,41.5467,3.450755,0.1537563,0.53800808,187.2227,04/17.0/2026,2000,g  7.0,6.0
# From MPC191600
82P/Gehrels,e,1.1292,239.2888,226.3151,4.134694,0.1172301,0.12348310,335.1206,04/17.0/2026,2000,g  5.0,8.0
# From MPC191600
84P/Giclas,e,7.5528,108.0798,281.7416,3.549910,0.1473595,0.51553801,315.5409,04/17.0/2026,2000,g  9.5,8.0
# From MPC191600
86P/Wild,e,15.4522,72.0647,180.9280,3.656292,0.1409752,0.35940293,217.4030,04/17.0/2026,2000,g 11.0,6.0
# From MPC191600
87P/Bus,e,3.8632,175.4760,63.5989,4.469004,0.1043249,0.19524033,237.8723,04/17.0/2026,2000,g  7.2,10.0
# From MPEC 2026-G41
88P/Howell,e,4.3818,56.6686,235.8633,3.109058,0.1797880,0.56327793,5.2568,04/17.0/2026,2000,g 11.0,6.0
# From MPC191600
89P/Russell,e,12.0657,41.3364,250.4854,3.752015,0.1356149,0.40695957,101.9357,04/17.0/2026,2000,g 11.5,6.0
# From MPC191600
90P/Gehrels,e,9.6323,13.1416,29.2395,6.056091,0.0661326,0.51008296,212.9347,04/17.0/2026,2000,g  8.5,6.0
# From MPC191600
91P/Russell,e,15.9150,241.8269,356.8125,4.165914,0.1159147,0.25072196,253.0516,04/17.0/2026,2000,g  7.5,6.0
# From MPC191601
92P/Sanguin,e,19.4766,181.3313,163.7757,5.346389,0.0797284,0.65990479,323.7653,04/17.0/2026,2000,g 12.0,6.0
# From MPEC 2026-E44
93P/Lovas,e,12.2106,339.5496,75.0453,4.372120,0.1078117,0.61382840,358.2802,04/17.0/2026,2000,g  9.5,6.0
# From MPEC 2026-FR0
94P/Russell,e,6.1870,70.8336,92.3923,3.509488,0.1499127,0.36628555,159.1196,04/17.0/2026,2000,g  9.0,6.0
# From MPC191601
96P/Machholz,e,57.5734,93.9581,14.7434,3.030946,0.1867828,0.96173432,218.7853,04/17.0/2026,2000,g 13.0,4.8
# From MPC106348
96P-B/Machholz,e,57.5116,14.4775,94.0769,3.029963,0.1868737,0.96174807,218.9599,04/17.0/2026,2000,g 13.0,4.8
# From MPC191601
97P/Metcalf-Brewington,e,17.9303,184.0603,230.2466,4.771776,0.0945549,0.45950993,143.8591,04/17.0/2026,2000,g  5.5,6.0
# From MPC191601
98P/Takamizawa,e,10.9528,114.4819,159.9437,3.680753,0.1395723,0.59908792,257.4692,04/17.0/2026,2000,g  9.0,8.0
# From MPC191601
99P/Kowal,e,4.3396,28.0425,174.5055,6.092668,0.0655379,0.22907589,96.2681,04/17.0/2026,2000,g  4.5,6.0
# From MPC191601
100P/Hartley,e,25.5690,37.6863,181.8850,3.430180,0.1551418,0.41144749,208.8716,04/17.0/2026,2000,g  9.0,8.0
# From MPC191601
101P/Chernykh,e,5.0485,116.1114,278.0138,5.819795,0.0702009,0.59501736,160.5485,04/17.0/2026,2000,g 10.0,4.8
# From MPC191601
102P/Shoemaker,e,25.8439,339.3428,20.6940,3.821320,0.1319423,0.45569138,252.3611,04/17.0/2026,2000,g  6.5,8.0
# From MPC191602
103P/Hartley,e,13.6022,219.7633,181.3354,3.476366,0.1520603,0.69320881,139.5578,04/17.0/2026,2000,g  8.5,8.0
# From MPC191602
104P/Kowal,e,5.6997,207.1553,227.3417,3.208419,0.1715013,0.66579513,266.7074,04/17.0/2026,2000,g 16.0,4.0
# From MPC191602
105P/SingerBrewster,e,9.1687,192.3850,46.3027,3.472351,0.1523241,0.40920625,68.4392,04/17.0/2026,2000,g 11.5,6.0
# From MPC191602
106P/Schuster,e,19.5250,48.8643,353.8005,3.769002,0.1346991,0.59319189,229.2757,04/17.0/2026,2000,g 14.0,4.8
# From MPC191602
108P/Ciffreo,e,11.4295,50.2720,354.5648,3.744583,0.1360188,0.55533592,228.4853,04/17.0/2026,2000,g  8.0,12.0
# From MPC191602
110P/Hartley,e,11.7117,287.4816,167.6040,3.603161,0.1441048,0.31923891,236.2778,04/17.0/2026,2000,g  1.0,12.0
# From MPC191602
111P/Helin-Roman-Crockett,e,4.2260,89.7323,1.6287,4.153129,0.1164504,0.10710297,205.0654,04/17.0/2026,2000,g  5.0,8.0
# From MPC191602
112P/Urata-Niijima,e,24.2037,31.7954,21.5826,3.521319,0.1491578,0.59073031,336.4546,04/17.0/2026,2000,g 14.0,6.0
# From MPC191602
113P/Spitaler,e,5.2880,306.6092,115.7713,3.697001,0.1386531,0.41933807,196.2388,04/17.0/2026,2000,g 13.5,4.0
# From MPC191603
114P/Wiseman-Skiff,e,18.3034,271.0223,172.8467,3.538451,0.1480759,0.55609558,337.6413,04/17.0/2026,2000,g 11.5,6.0
# From MPC191603
115P/Maury,e,11.7078,175.8576,120.9983,4.268672,0.1117545,0.51928708,233.6239,04/17.0/2026,2000,g 10.5,6.0
# From MPC191603
116P/Wild,e,3.6054,20.9586,173.1504,3.484839,0.1515061,0.37115060,207.5307,04/17.0/2026,2000,g  2.5,10.0
# From MPEC 2026-E43
117P/Helin-Roman-Alu,e,8.6465,58.7306,225.0346,4.129238,0.1174625,0.24919068,161.9524,04/17.0/2026,2000,g  2.5,8.0
# From MPC191603
118P/Shoemaker-Levy,e,10.0936,142.0417,314.9889,3.349141,0.1608066,0.45375062,199.2330,04/17.0/2026,2000,g 12.0,4.0
# From MPC191603
119P/Parker-Hartley,e,7.3928,104.5412,322.3087,3.810761,0.1324910,0.38778787,178.0294,04/17.0/2026,2000,g  3.5,8.0
# From MPC191603
120P/Mueller,e,8.4782,358.6366,36.8495,3.971095,0.1245485,0.37372874,224.9425,04/17.0/2026,2000,g 12.0,4.0
# From MPC191603
121P/Shoemaker-Holt,e,20.1617,94.1060,12.1194,4.591643,0.1001733,0.18662152,102.2176,04/17.0/2026,2000,g  6.5,8.0
# From MPEC 2026-G41
123P/West-Hartley,e,15.2828,45.8703,103.8887,3.887917,0.1285667,0.44480518,339.6918,04/17.0/2026,2000,g  4.0,10.0
# From MPEC 2026-G41
124P/Mrkos,e,31.4052,359.9473,185.1185,3.377462,0.1587882,0.48630959,349.2668,04/17.0/2026,2000,g 13.5,2.8
# From MPC191604
125P/Spacewatch,e,9.9862,153.1534,87.0728,3.126965,0.1782459,0.51204668,137.4039,04/17.0/2026,2000,g 13.0,6.0
# From MPC191604
126P/IRAS,e,45.8745,357.8539,356.5373,5.623986,0.0738989,0.69577363,75.1833,04/17.0/2026,2000,g  6.0,8.0
# From MPC191604
127P/Holt-Olmstead,e,14.2909,13.6137,6.3350,3.455394,0.1534467,0.35836348,206.6354,04/17.0/2026,2000,g 11.0,6.0
# From MPEC 2026-E43
128P/Shoemaker-Holt,e,4.3717,214.3066,210.5617,4.480743,0.1039152,0.32225182,350.5406,04/17.0/2026,2000,g  8.5,4.0
# From MPC191604
129P/Shoemaker-Levy,e,3.4411,184.8314,308.1015,4.295065,0.1107260,0.08598382,136.0574,04/17.0/2026,2000,g 11.0,4.0
# From MPC191604
130P/McNaught-Hughes,e,5.9886,69.8026,247.4588,3.409263,0.1565717,0.45951609,114.3917,04/17.0/2026,2000,g 10.0,6.0
# From MPC191604
131P/Mueller,e,7.3623,214.1324,179.2785,3.673755,0.1399712,0.34459208,8.4351,04/17.0/2026,2000,g 11.0,4.0
# From MPC191604
132P/Helin-Roman-Alu,e,5.3756,173.9599,216.5276,3.893509,0.1282899,0.56358888,207.3972,04/17.0/2026,2000,g 11.0,6.0
# From MPC191604
134P/Kowal-Vavrova,e,4.3315,202.0182,18.5642,6.277969,0.0626578,0.58575621,274.7071,04/17.0/2026,2000,g 11.5,4.0
# From MPC191605
135P/Shoemaker-Levy,e,6.0616,213.0152,22.3028,3.802340,0.1329314,0.29318502,195.8501,04/17.0/2026,2000,g  7.0,8.0
# From MPEC 2026-E44
136P/Mueller,e,9.4292,137.3961,225.5559,4.191255,0.1148650,0.29359661,53.7098,04/17.0/2026,2000,g 11.0,4.0
# From MPC191605
137P/Shoemaker-Levy,e,4.8581,232.9303,141.1899,4.524889,0.1023982,0.57260136,274.5296,04/17.0/2026,2000,g 11.0,4.0
# From MPEC 2026-FR0
138P/Shoemaker-Levy,e,10.0984,309.2191,95.7600,3.615900,0.1433440,0.53143824,3.3928,04/17.0/2026,2000,g 15.0,6.0
# From MPC191605
139P/Vaisala-Oterma,e,2.3382,242.1247,166.1018,4.511764,0.1028453,0.24808354,312.4578,04/17.0/2026,2000,g  9.5,4.0
# From MPC191605
140P/Bowell-Skiff,e,3.6731,343.3469,172.1510,6.415529,0.0606534,0.69484467,238.8488,04/17.0/2026,2000,g 11.5,6.0
# From MPC191605
141P/Machholz,e,13.9603,241.7716,153.6505,3.056340,0.1844597,0.73580751,358.8946,04/17.0/2026,2000,g 12.0,12.0
# From MPEC 2015-KD9
141P-A/Machholz,e,13.9430,153.4939,241.9396,3.056839,0.1844146,0.73584876,358.8278,04/17.0/2026,2000,g 12.0,12.0
# From MPC 37026
141P-D/Machholz,e,13.8345,153.2187,242.1833,3.064904,0.1836871,0.73672358,354.1936,04/17.0/2026,2000,g 12.0,12.0
# From MPC186636
